start=new Date('2022-05-16T00:00:00.000Z').valueOf();
sats=[{"REF_FRAME":"TEME","COUNTRY_CODE":"US","ELEMENT_SET_NO":"999","CENTER_NAME":"EARTH","CLASSIFICATION_TYPE":"U","BSTAR":"-0.05312200000000","ARG_OF_PERICENTER":"277.7380","SITE":"AFWTR","RA_OF_ASC_NODE":"167.8536","EPOCH":"2022-05-15T22:00:00.999936","RCS_SIZE":"LARGE","MEAN_MOTION":"15.02132198","DECAY_DATE":null,"OBJECT_TYPE":"PAYLOAD","MEAN_MOTION_DOT":"-0.00655160","PERIAPSIS":"558.126","ECCENTRICITY":"0.00031690","MEAN_MOTION_DDOT":"0.0000000000000","OBJECT_ID":"2021-082Z","INCLINATION":"69.9999","SEMIMAJOR_AXIS":"6938.460","TLE_LINE2":"2 49153  69.9999 167.8536 0003169 277.7380 271.1383 15.02132198  1305","GP_ID":"203651583","APOAPSIS":"562.524","NORAD_CAT_ID":"49153","MEAN_ELEMENT_THEORY":"SGP4","EPHEMERIS_TYPE":"0","TLE_LINE1":"1 49153U 21082Z   22135.91667824 -.00655160  00000-0 -53122-1 0  9990","OBJECT_NAME":"STARLINK-3072","FILE":"3447521","PERIOD":"95.864","LAUNCH_DATE":"2021-09-14","TIME_SYSTEM":"UTC","REV_AT_EPOCH":"130","MEAN_ANOMALY":"271.1383"},{"RA_OF_ASC_NODE":"187.9947","SITE":"AFWTR","ARG_OF_PERICENTER":"273.2463","EPOCH":"2022-05-15T22:00:00.999936","ELEMENT_SET_NO":"999","CENTER_NAME":"EARTH","CLASSIFICATION_TYPE":"U","BSTAR":"0.00233710000000","COUNTRY_CODE":"US","REF_FRAME":"TEME","OBJECT_TYPE":"PAYLOAD","MEAN_MOTION_DOT":"0.00026758","PERIAPSIS":"574.731","SEMIMAJOR_AXIS":"6955.204","INCLINATION":"69.9991","ECCENTRICITY":"0.00033610","MEAN_MOTION_DDOT":"0.0000000000000","OBJECT_ID":"2021-082AA","MEAN_MOTION":"14.96711040","RCS_SIZE":"LARGE","DECAY_DATE":null,"NORAD_CAT_ID":"49154","MEAN_ELEMENT_THEORY":"SGP4","EPHEMERIS_TYPE":"0","TLE_LINE2":"2 49154  69.9991 187.9947 0003361 273.2463 345.5424 14.96711040  1307","GP_ID":"203650838","APOAPSIS":"579.407","REV_AT_EPOCH":"130","MEAN_ANOMALY":"345.5424","PERIOD":"96.211","TLE_LINE1":"1 49154U 21082AA  22135.91667824  .00026758  00000-0  23371-2 0  9998","FILE":"3447521","OBJECT_NAME":"STARLINK-3068","LAUNCH_DATE":"2021-09-14","TIME_SYSTEM":"UTC"},{"MEAN_ANOMALY":"240.3913","REV_AT_EPOCH":"130","TIME_SYSTEM":"UTC","LAUNCH_DATE":"2021-09-14","FILE":"3447521","OBJECT_NAME":"STARLINK-3060","TLE_LINE1":"1 49155U 21082AB  22135.91667824 -.00718702  00000-0 -57659-1 0  9993","PERIOD":"95.823","EPHEMERIS_TYPE":"0","NORAD_CAT_ID":"49155","MEAN_ELEMENT_THEORY":"SGP4","APOAPSIS":"560.540","GP_ID":"203651088","TLE_LINE2":"2 49155  70.0000 167.9021 0003164 278.1397 240.3913 15.02775299  1303","MEAN_MOTION_DDOT":"0.0000000000000","OBJECT_ID":"2021-082AB","ECCENTRICITY":"0.00031640","SEMIMAJOR_AXIS":"6936.480","INCLINATION":"70.0000","OBJECT_TYPE":"PAYLOAD","PERIAPSIS":"556.150","MEAN_MOTION_DOT":"-0.00718702","DECAY_DATE":null,"MEAN_MOTION":"15.02775299","RCS_SIZE":"LARGE","EPOCH":"2022-05-15T22:00:00.999936","ARG_OF_PERICENTER":"278.1397","RA_OF_ASC_NODE":"167.9021","SITE":"AFWTR","REF_FRAME":"TEME","COUNTRY_CODE":"US","CENTER_NAME":"EARTH","CLASSIFICATION_TYPE":"U","BSTAR":"-0.05765900000000","ELEMENT_SET_NO":"999"},{"ELEMENT_SET_NO":"999","CLASSIFICATION_TYPE":"U","CENTER_NAME":"EARTH","BSTAR":"-0.05666300000000","COUNTRY_CODE":"US","REF_FRAME":"TEME","SITE":"AFWTR","RA_OF_ASC_NODE":"167.8926","ARG_OF_PERICENTER":"276.0956","EPOCH":"2022-05-15T22:00:00.999936","MEAN_MOTION":"15.03353900","RCS_SIZE":"LARGE","DECAY_DATE":null,"OBJECT_TYPE":"PAYLOAD","MEAN_MOTION_DOT":"-0.00717355","PERIAPSIS":"554.381","INCLINATION":"70.0000","SEMIMAJOR_AXIS":"6934.700","ECCENTRICITY":"0.00031490","MEAN_MOTION_DDOT":"0.0000000000000","OBJECT_ID":"2021-082AC","TLE_LINE2":"2 49156  70.0000 167.8926 0003149 276.0956 341.2985 15.03353900  1300","GP_ID":"203651338","APOAPSIS":"558.749","NORAD_CAT_ID":"49156","MEAN_ELEMENT_THEORY":"SGP4","EPHEMERIS_TYPE":"0","PERIOD":"95.786","TLE_LINE1":"1 49156U 21082AC  22135.91667824 -.00717355  00000-0 -56663-1 0  9991","OBJECT_NAME":"STARLINK-3085","FILE":"3447521","LAUNCH_DATE":"2021-09-14","TIME_SYSTEM":"UTC","REV_AT_EPOCH":"130","MEAN_ANOMALY":"341.2985"},{"ARG_OF_PERICENTER":"270.4975","SITE":"AFWTR","RA_OF_ASC_NODE":"187.9975","EPOCH":"2022-05-15T22:00:00.999936","COUNTRY_CODE":"US","REF_FRAME":"TEME","CENTER_NAME":"EARTH","CLASSIFICATION_TYPE":"U","BSTAR":"0.00264040000000","ELEMENT_SET_NO":"999","PERIAPSIS":"574.924","OBJECT_TYPE":"PAYLOAD","MEAN_MOTION_DOT":"0.00030242","MEAN_MOTION_DDOT":"0.0000000000000","OBJECT_ID":"2021-082AD","ECCENTRICITY":"0.00031730","INCLINATION":"69.9987","SEMIMAJOR_AXIS":"6955.265","MEAN_MOTION":"14.96691173","RCS_SIZE":"LARGE","DECAY_DATE":null,"MEAN_ELEMENT_THEORY":"SGP4","NORAD_CAT_ID":"49157","EPHEMERIS_TYPE":"0","GP_ID":"203619520","TLE_LINE2":"2 49157  69.9987 187.9975 0003173 270.4975  14.5744 14.96691173 38812","APOAPSIS":"579.337","REV_AT_EPOCH":"3881","MEAN_ANOMALY":"14.5744","FILE":"3447179","OBJECT_NAME":"STARLINK-3051","TLE_LINE1":"1 49157U 21082AD  22135.91667824  .00030242  00000-0  26404-2 0  9994","PERIOD":"96.212","TIME_SYSTEM":"UTC","LAUNCH_DATE":"2021-09-14"},{"CLASSIFICATION_TYPE":"U","CENTER_NAME":"EARTH","BSTAR":"0.00269530000000","ELEMENT_SET_NO":"999","REF_FRAME":"TEME","COUNTRY_CODE":"US","EPOCH":"2022-05-15T22:00:00.999936","RA_OF_ASC_NODE":"187.9845","SITE":"AFWTR","ARG_OF_PERICENTER":"276.2729","DECAY_DATE":null,"MEAN_MOTION":"14.96694016","RCS_SIZE":"LARGE","SEMIMAJOR_AXIS":"6955.257","INCLINATION":"69.9994","MEAN_MOTION_DDOT":"0.0000000000000","OBJECT_ID":"2021-082AE","ECCENTRICITY":"0.00033910","OBJECT_TYPE":"PAYLOAD","MEAN_MOTION_DOT":"0.00030878","PERIAPSIS":"574.763","APOAPSIS":"579.480","GP_ID":"203650338","TLE_LINE2":"2 49158  69.9994 187.9845 0003391 276.2729  34.9129 14.96694016  1306","EPHEMERIS_TYPE":"0","MEAN_ELEMENT_THEORY":"SGP4","NORAD_CAT_ID":"49158","TIME_SYSTEM":"UTC","LAUNCH_DATE":"2021-09-14","PERIOD":"96.212","FILE":"3447521","OBJECT_NAME":"STARLINK-3083","TLE_LINE1":"1 49158U 21082AE  22135.91667824  .00030878  00000-0  26953-2 0  9999","MEAN_ANOMALY":"34.9129","REV_AT_EPOCH":"130"},{"ELEMENT_SET_NO":"999","BSTAR":"-0.00085748000000","CENTER_NAME":"EARTH","CLASSIFICATION_TYPE":"U","COUNTRY_CODE":"US","REF_FRAME":"TEME","EPOCH":"2022-05-15T22:00:00.999936","RA_OF_ASC_NODE":"208.6347","SITE":"AFWTR","ARG_OF_PERICENTER":"277.8682","DECAY_DATE":null,"RCS_SIZE":"LARGE","MEAN_MOTION":"14.98325220","SEMIMAJOR_AXIS":"6950.208","INCLINATION":"70.0011","ECCENTRICITY":"0.00033430","OBJECT_ID":"2021-082AF","MEAN_MOTION_DDOT":"0.0000000000000","PERIAPSIS":"569.749","OBJECT_TYPE":"PAYLOAD","MEAN_MOTION_DOT":"-0.00010308","APOAPSIS":"574.396","TLE_LINE2":"2 49159  70.0011 208.6347 0003343 277.8682 314.2520 14.98325220  1309","GP_ID":"203650588","EPHEMERIS_TYPE":"0","MEAN_ELEMENT_THEORY":"SGP4","NORAD_CAT_ID":"49159","LAUNCH_DATE":"2021-09-14","TIME_SYSTEM":"UTC","PERIOD":"96.107","TLE_LINE1":"1 49159U 21082AF  22135.91667824 -.00010308  00000-0 -85748-3 0  9996","FILE":"3447521","OBJECT_NAME":"STARLINK-3056","MEAN_ANOMALY":"314.2520","REV_AT_EPOCH":"130"},{"REF_FRAME":"TEME","COUNTRY_CODE":"US","CLASSIFICATION_TYPE":"U","BSTAR":"-0.00086070000000","CENTER_NAME":"EARTH","ELEMENT_SET_NO":"999","EPOCH":"2022-05-15T22:00:00.999936","ARG_OF_PERICENTER":"282.9712","SITE":"AFWTR","RA_OF_ASC_NODE":"208.6425","DECAY_DATE":null,"MEAN_MOTION":"14.98328240","RCS_SIZE":"LARGE","MEAN_MOTION_DDOT":"0.0000000000000","OBJECT_ID":"2021-082AG","ECCENTRICITY":"0.00032640","SEMIMAJOR_AXIS":"6950.198","INCLINATION":"70.0019","MEAN_MOTION_DOT":"-0.00010347","OBJECT_TYPE":"PAYLOAD","PERIAPSIS":"569.795","APOAPSIS":"574.332","GP_ID":"203651839","TLE_LINE2":"2 49160  70.0019 208.6425 0003264 282.9712   0.5253 14.98328240  1302","EPHEMERIS_TYPE":"0","MEAN_ELEMENT_THEORY":"SGP4","NORAD_CAT_ID":"49160","TIME_SYSTEM":"UTC","LAUNCH_DATE":"2021-09-14","FILE":"3447521","OBJECT_NAME":"STARLINK-3095","TLE_LINE1":"1 49160U 21082AG  22135.91667824 -.00010347  00000-0 -86070-3 0  9990","PERIOD":"96.107","MEAN_ANOMALY":"0.5253","REV_AT_EPOCH":"130"},{"EPHEMERIS_TYPE":"0","NORAD_CAT_ID":"49161","MEAN_ELEMENT_THEORY":"SGP4","APOAPSIS":"574.422","GP_ID":"203651584","TLE_LINE2":"2 49161  70.0016 208.6399 0003357 269.8321 347.9708 14.98320088  1308","MEAN_ANOMALY":"347.9708","REV_AT_EPOCH":"130","TIME_SYSTEM":"UTC","LAUNCH_DATE":"2021-09-14","OBJECT_NAME":"STARLINK-3080","FILE":"3447521","TLE_LINE1":"1 49161U 21082AH  22135.91667824 -.00009573  00000-0 -79578-3 0  9995","PERIOD":"96.108","EPOCH":"2022-05-15T22:00:00.999936","ARG_OF_PERICENTER":"269.8321","RA_OF_ASC_NODE":"208.6399","SITE":"AFWTR","COUNTRY_CODE":"US","REF_FRAME":"TEME","CENTER_NAME":"EARTH","BSTAR":"-0.00079578000000","CLASSIFICATION_TYPE":"U","ELEMENT_SET_NO":"999","OBJECT_ID":"2021-082AH","MEAN_MOTION_DDOT":"0.0000000000000","ECCENTRICITY":"0.00033570","SEMIMAJOR_AXIS":"6950.224","INCLINATION":"70.0016","OBJECT_TYPE":"PAYLOAD","PERIAPSIS":"569.755","MEAN_MOTION_DOT":"-0.00009573","DECAY_DATE":null,"RCS_SIZE":"LARGE","MEAN_MOTION":"14.98320088"},{"MEAN_ANOMALY":"31.6750","REV_AT_EPOCH":"130","LAUNCH_DATE":"2021-09-14","TIME_SYSTEM":"UTC","PERIOD":"96.107","TLE_LINE1":"1 49162U 21082AJ  22135.91667824 -.00009744  00000-0 -81002-3 0  9991","FILE":"3447521","OBJECT_NAME":"STARLINK-3082","EPHEMERIS_TYPE":"0","NORAD_CAT_ID":"49162","MEAN_ELEMENT_THEORY":"SGP4","APOAPSIS":"574.258","TLE_LINE2":"2 49162  69.9999 208.6402 0003150 277.5867  31.6750 14.98326496  1306","GP_ID":"203650839","INCLINATION":"69.9999","SEMIMAJOR_AXIS":"6950.204","ECCENTRICITY":"0.00031500","MEAN_MOTION_DDOT":"0.0000000000000","OBJECT_ID":"2021-082AJ","OBJECT_TYPE":"PAYLOAD","MEAN_MOTION_DOT":"-0.00009744","PERIAPSIS":"569.879","DECAY_DATE":null,"RCS_SIZE":"LARGE","MEAN_MOTION":"14.98326496","EPOCH":"2022-05-15T22:00:00.999936","SITE":"AFWTR","RA_OF_ASC_NODE":"208.6402","ARG_OF_PERICENTER":"277.5867","ELEMENT_SET_NO":"999","CLASSIFICATION_TYPE":"U","CENTER_NAME":"EARTH","BSTAR":"-0.00081002000000","REF_FRAME":"TEME","COUNTRY_CODE":"US"}];
